NORAD_CAT_ID,OBJECT_NAME,OBJECT_TYPE,EPOCH,MEAN_MOTION,ECCENTRICITY,INCLINATION,RA_OF_ASC_NODE,ARG_OF_PERICENTER,MEAN_ANOMALY,BSTAR,MEAN_MOTION_DOT,MEAN_MOTION_DDOT,TLE_LINE0,TLE_LINE1,TLE_LINE2,SEMIMAJOR_AXIS,PERIOD,APOGEE,PERIGEE,DECAYED
51732.0,STARLINK-3518,PAYLOAD,2023-11-10 20:51:46,15.08845968,0.0001249,53.2149,174.1129,87.0357,273.0778,0.0003772,5.721e-05,0.0,0 STARLINK-3518,1 51732U 22016U   23314.86929200  .00005721  00000-0  37720-3 0  9995,2 51732  53.2149 174.1129 0001249  87.0357 273.0778 15.08845968 96413,6917.862,95.437,540.591,538.863,0.0
51732.0,STARLINK-3518,PAYLOAD,2023-11-10 22:27:09,15.08844022,0.000126,53.2149,173.8153,90.1474,269.9662,0.00037108,5.623e-05,0.0,0 STARLINK-3518,1 51732U 22016U   23314.93553021  .00005623  00000-0  37108-3 0  9998,2 51732  53.2149 173.8153 0001260  90.1474 269.9662 15.08844022 96421,6917.868,95.437,540.605,538.861,0.0
51732.0,STARLINK-3518,PAYLOAD,2023-11-11 00:02:32,15.08844973,0.0001271,53.2148,173.5178,88.5021,271.6117,0.00046463,7.115e-05,0.0,0 STARLINK-3518,1 51732U 22016U   23315.00177035  .00007115  00000-0  46463-3 0  9996,2 51732  53.2148 173.5178 0001271  88.5021 271.6117 15.08844973 96436,6917.865,95.437,540.609,538.851,0.0
51732.0,STARLINK-3518,PAYLOAD,2023-11-11 20:42:33,15.08844179,0.000126,53.2156,169.6488,88.1279,271.9857,0.00015878,2.24e-05,0.0,0 STARLINK-3518,1 51732U 22016U   23315.86289126  .00002240  00000-0  15878-3 0  9995,2 51732  53.2156 169.6488 0001260  88.1279 271.9857 15.08844179 96560,6917.868,95.437,540.604,538.861,0.0
51732.0,STARLINK-3518,PAYLOAD,2023-11-12 07:50:15,15.08843013,0.0001308,53.2148,167.568,88.3896,271.7246,0.00011867,1.601e-05,0.0,0 STARLINK-3518,1 51732U 22016U   23316.32657133  .00001601  00000-0  11867-3 0  9998,2 51732  53.2148 167.5680 0001308  88.3896 271.7246 15.08843013 96636,6917.871,95.437,540.641,538.831,0.0
51732.0,STARLINK-3518,PAYLOAD,2023-11-12 18:57:57,15.08839429,0.0001398,53.2152,165.4862,96.4177,263.6974,0.00028063,4.181e-05,0.0,0 STARLINK-3518,1 51732U 22016U   23316.79025392  .00004181  00000-0  28063-3 0  9997,2 51732  53.2152 165.4862 0001398  96.4177 263.6974 15.08839429 96703,6917.882,95.438,540.714,538.78,0.0
51732.0,STARLINK-3518,PAYLOAD,2023-11-12 20:33:20,15.08845019,0.0001373,53.2152,165.1887,95.7616,264.3532,0.00012142,1.645e-05,0.0,0 STARLINK-3518,1 51732U 22016U   23316.85649072  .00001645  00000-0  12142-3 0  9994,2 51732  53.2152 165.1887 0001373  95.7616 264.3532 15.08845019 96711,6917.865,95.437,540.68,538.78,0.0
51732.0,STARLINK-3518,PAYLOAD,2023-11-13 14:02:35,15.08841319,0.0001404,53.215,161.9171,98.8722,261.2429,9.9255e-05,1.292e-05,0.0,0 STARLINK-3518,1 51732U 22016U   23317.58513221  .00001292  00000-0  99255-4 0  9990,2 51732  53.2150 161.9171 0001404  98.8722 261.2429 15.08841319 96828,6917.876,95.437,540.713,538.77,0.0
51732.0,STARLINK-3518,PAYLOAD,2023-11-14 13:53:22,15.08841295,0.0001351,53.2145,157.4579,95.5048,264.6098,8.0747e-05,9.97e-06,0.0,0 STARLINK-3518,1 51732U 22016U   23318.57873191  .00000997  00000-0  80747-4 0  9992,2 51732  53.2145 157.4579 0001351  95.5048 264.6098 15.08841295 96978,6917.876,95.437,540.676,538.807,0.0
51732.0,STARLINK-3518,PAYLOAD,2023-11-14 20:14:55,15.08839653,0.0001321,53.2142,156.2691,92.8377,267.2766,5.2871e-05,5.54e-06,0.0,0 STARLINK-3518,1 51732U 22016U   23318.84369282  .00000554  00000-0  52871-4 0  9999,2 51732  53.2142 156.2691 0001321  92.8377 267.2766 15.08839653 97011,6917.881,95.438,540.66,538.833,0.0
51732.0,STARLINK-3518,PAYLOAD,2023-11-14 23:25:41,15.08839745,0.0001329,53.2157,155.6748,94.7083,265.406,5.8575e-05,6.44e-06,0.0,0 STARLINK-3518,1 51732U 22016U   23318.97617363  .00000644  00000-0  58575-4 0  9996,2 51732  53.2157 155.6748 0001329  94.7083 265.4060 15.08839745 97037,6917.881,95.438,540.666,538.827,0.0
51732.0,STARLINK-3518,PAYLOAD,2023-11-15 20:05:42,15.08835514,0.0001336,53.2149,151.8087,93.2834,266.8311,5.3052e-05,5.56e-06,0.0,0 STARLINK-3518,1 51732U 22016U   23319.83729843  .00000556  00000-0  53052-4 0  9996,2 51732  53.2149 151.8087 0001336  93.2834 266.8311 15.08835514 97166,6917.894,95.438,540.683,538.835,0.0
51732.0,STARLINK-3518,PAYLOAD,2023-11-16 11:59:33,15.08835551,0.0001397,53.2158,148.8349,91.7692,268.346,8.9491e-05,1.136e-05,0.0,0 STARLINK-3518,1 51732U 22016U   23320.49969891  .00001136  00000-0  89491-4 0  9990,2 51732  53.2158 148.8349 0001397  91.7692 268.3460 15.08835551 97269,6917.894,95.438,540.725,538.793,0.0
51732.0,STARLINK-3518,PAYLOAD,2023-11-16 19:56:29,15.08838178,0.0001558,53.2162,147.349,95.3898,264.7272,9.9812e-05,1.301e-05,0.0,0 STARLINK-3518,1 51732U 22016U   23320.83089742  .00001301  00000-0  99812-4 0  9998,2 51732  53.2162 147.3490 0001558  95.3898 264.7272 15.08838178 97317,6917.886,95.438,540.829,538.673,0.0
51732.0,STARLINK-3518,PAYLOAD,2023-11-17 05:28:48,15.08838146,0.0001248,53.2139,145.5634,89.2911,270.8224,0.00010269,1.347e-05,0.0,0 STARLINK-3518,1 51732U 22016U   23321.22833792  .00001347  00000-0  10269-3 0  9992,2 51732  53.2139 145.5634 0001248  89.2911 270.8224 15.08838146 97371,6917.886,95.438,540.614,538.888,0.0
51732.0,STARLINK-3518,PAYLOAD,2023-11-17 21:22:40,15.08836057,0.0001422,53.2152,142.5907,87.8939,272.2216,5.8153e-05,6.38e-06,0.0,0 STARLINK-3518,1 51732U 22016U   23321.89074249  .00000638  00000-0  58153-4 0  9996,2 51732  53.2152 142.5907 0001422  87.8939 272.2216 15.08836057 97471,6917.892,95.438,540.741,538.774,0.0
51732.0,STARLINK-3518,PAYLOAD,2023-11-18 21:13:26,15.08840739,0.0001446,53.2154,138.1304,87.4866,272.6291,6.2531e-05,7.07e-06,0.0,0 STARLINK-3518,1 51732U 22016U   23322.88433991  .00000707  00000-0  62531-4 0  9991,2 51732  53.2154 138.1304 0001446  87.4866 272.6291 15.08840739 97622,6917.878,95.438,540.743,538.743,0.0
51732.0,STARLINK-3518,PAYLOAD,2023-11-19 11:31:54,15.08842914,0.0001408,53.2159,135.4538,87.995,272.1204,0.00010905,1.448e-05,0.0,0 STARLINK-3518,1 51732U 22016U   23323.48049760  .00001448  00000-0  10905-3 0  9995,2 51732  53.2159 135.4538 0001408  87.9950 272.1204 15.08842914 97719,6917.871,95.437,540.711,538.762,0.0
51732.0,STARLINK-3518,PAYLOAD,2023-11-19 21:04:13,15.08845129,0.0001385,53.2155,133.6687,92.6611,267.4539,0.0001088,1.444e-05,0.0,0 STARLINK-3518,1 51732U 22016U   23323.87793462  .00001444  00000-0  10880-3 0  9991,2 51732  53.2155 133.6687 0001385  92.6611 267.4539 15.08845129 97776,6917.865,95.437,540.688,538.772,0.0
51732.0,STARLINK-3518,PAYLOAD,2023-11-20 14:33:28,15.08844695,0.0001398,53.2154,130.3977,92.2922,267.823,6.8167e-05,7.97e-06,0.0,0 STARLINK-3518,1 51732U 22016U   23324.60657539  .00000797  00000-0  68167-4 0  9999,2 51732  53.2154 130.3977 0001398  92.2922 267.8230 15.08844695 97887,6917.866,95.437,540.698,538.764,0.0
51732.0,STARLINK-3518,PAYLOAD,2023-11-20 17:44:14,15.08845663,0.0001397,53.2158,129.8026,94.1454,265.9697,7.3294e-05,8.79e-06,0.0,0 STARLINK-3518,1 51732U 22016U   23324.73905402  .00000879  00000-0  73294-4 0  9996,2 51732  53.2158 129.8026 0001397  94.1454 265.9697 15.08845663 97904,6917.863,95.437,540.695,538.762,0.0
51732.0,STARLINK-3518,PAYLOAD,2023-11-21 11:13:29,15.08839441,0.000139,53.2164,126.5325,91.9757,268.1394,-1.3346e-06,-3.09e-06,0.0,0 STARLINK-3518,1 51732U 22016U   23325.46769876 -.00000309  00000-0 -13346-5 0  9993,2 51732  53.2164 126.5325 0001390  91.9757 268.1394 15.08839441 98010,6917.882,95.438,540.709,538.786,0.0
51732.0,STARLINK-3518,PAYLOAD,2023-11-21 17:35:01,15.08842886,0.0001418,53.2165,125.343,92.5253,267.5902,1.4218e-05,-6.2e-07,0.0,0 STARLINK-3518,1 51732U 22016U   23325.73265590 -.00000062  00000-0  14218-4 0  9990,2 51732  53.2165 125.3430 0001418  92.5253 267.5902 15.08842886 98053,6917.872,95.437,540.718,538.756,0.0
51732.0,STARLINK-3518,PAYLOAD,2023-11-22 11:04:15,15.08845657,0.0001335,53.2165,122.0724,89.6148,270.4997,7.9856e-05,9.83e-06,0.0,0 STARLINK-3518,1 51732U 22016U   23326.46129149  .00000983  00000-0  79856-4 0  9990,2 51732  53.2165 122.0724 0001335  89.6148 270.4997 15.08845657 98169,6917.863,95.437,540.652,538.805,0.0
51732.0,STARLINK-3518,PAYLOAD,2023-11-22 14:15:01,15.08849093,0.000134,53.2164,121.4777,90.1805,269.9341,0.00011209,1.497e-05,0.0,0 STARLINK-3518,1 51732U 22016U   23326.59376856  .00001497  00000-0  11209-3 0  9991,2 51732  53.2164 121.4777 0001340  90.1805 269.9341 15.08849093 98188,6917.853,95.437,540.645,538.791,0.0
51732.0,STARLINK-3518,PAYLOAD,2023-11-22 15:50:24,15.08850406,0.0001346,53.2165,121.1804,89.4628,270.6518,0.00012518,1.705e-05,0.0,0 STARLINK-3518,1 51732U 22016U   23326.66000755  .00001705  00000-0  12518-3 0  9997,2 51732  53.2165 121.1804 0001346  89.4628 270.6518 15.08850406 98193,6917.849,95.437,540.645,538.782,0.0
51732.0,STARLINK-3518,PAYLOAD,2023-11-23 10:55:02,15.08838496,0.000148,53.2154,117.611,88.7917,271.3244,5.8614e-05,6.45e-06,0.0,0 STARLINK-3518,1 51732U 22016U   23327.45489582  .00000645  00000-0  58614-4 0  9994,2 51732  53.2154 117.6110 0001480  88.7917 271.3244 15.08838496 98316,6917.885,95.438,540.774,538.726,0.0
51732.0,STARLINK-3518,PAYLOAD,2023-11-23 14:05:49,15.08837485,0.0001922,53.2165,117.017,121.059,239.0591,-6.2439e-06,-3.88e-06,0.0,0 STARLINK-3518,1 51732U 22016U   23327.58737489 -.00000388  00000-0 -62439-5 0  9997,2 51732  53.2165 117.0170 0001922 121.0590 239.0591 15.08837485 98332,6917.888,95.438,541.083,538.423,0.0
51732.0,STARLINK-3518,PAYLOAD,2023-11-23 15:41:12,15.08840773,0.0001859,53.2166,116.7202,118.4521,241.6659,-0.00016514,-2.915e-05,0.0,0 STARLINK-3518,1 51732U 22016U   23327.65361432 -.00002915  00000-0 -16514-3 0  9995,2 51732  53.2166 116.7202 0001859 118.4521 241.6659 15.08840773 98347,6917.878,95.438,541.029,538.457,0.0
51732.0,STARLINK-3518,PAYLOAD,2023-11-24 09:10:27,15.08834726,0.0001602,53.2163,113.4493,113.7328,246.3832,-9.7425e-05,-1.838e-05,0.0,0 STARLINK-3518,1 51732U 22016U   23328.38225954 -.00001838  00000-0 -97425-4 0  9998,2 51732  53.2163 113.4493 0001602 113.7328 246.3832 15.08834726 98457,6917.897,95.438,540.87,538.653,0.0
